SAUDISAT 1C (SO-50)     
1 27607U 02058C   26183.32741954  .00001045  00000+0  14035-3 0  9997
2 27607  64.5520  82.1417 0074891 259.6484  99.6174 14.83078536266708
SAUDISAT 2              
1 28371U 04025F   26183.27793994  .00000291  00000+0  76076-4 0  9993
2 28371  98.5511 183.6500 0023503 249.4990 110.3685 14.56692512167947
SAUDISAT 3              
1 31118U 07012B   26183.62715031  .00000322  00000+0  60077-4 0  9999
2 31118  98.1462 134.0384 0014711 173.1502 186.9908 14.71434502 30018
PISAT                   
1 41784U 16059B   26183.46991319  .00001126  00000+0  19878-3 0  9992
2 41784  97.8182 183.2661 0029647 153.9873 206.2831 14.69011061521988
FLYING LAPTOP           
1 42831U 17042G   26183.64960918  .00004368  00000+0  34303-3 0  9991
2 42831  97.4759 338.5939 0020002  72.5397 287.8012 15.01246024488775
SALSAT                  
1 46495U 20068K   26183.25417133  .00008637  00000+0  29987-3 0  9991
2 46495  97.8847 187.2381 0008037 243.7769 116.2645 15.30013367317666
